ONEWEB-0520             
1 54138U 22138AB  25063.89971753  .00000000  00000+0 -32470-4 0  9992
2 54138  87.9186  38.2261 0002330  85.9201 274.2198 13.19726874114925
ONEWEB-0521             
1 54139U 22138AC  25063.93289317  .00000066  00000+0  13268-3 0  9990
2 54139  87.9185  38.2083 0001674  88.4771 271.6554 13.19725695114878
ONEWEB-0522             
1 54140U 22138AD  25063.91235435  .00000034  00000+0  52600-4 0  9991
2 54140  87.9184  38.2141 0002029  81.6877 278.4485 13.19724310115783
ONEWEB-0523             
1 54141U 22138AE  25063.86867855  .00000134  00000+0  29850-3 0  9994
2 54141  87.9322   7.8336 0001184  55.7272 304.3974 13.20770298117353
ONEWEB-0524             
1 54142U 22138AF  25063.85763545  .00000079  00000+0  16240-3 0  9992
2 54142  87.9323   7.8379 0002154  52.8903 307.2427 13.20770669117356
ONEWEB-0525             
1 54143U 22138AG  25063.93131245  .00000052  00000+0  96788-4 0  9995
2 54143  87.9189  38.2261 0002227  88.7889 271.3499 13.19724842114938
ONEWEB-0526             
1 54144U 22138AH  25063.88865419  .00000028  00000+0  37357-4 0  9997
2 54144  87.9184  38.2252 0002029  83.4025 276.7339 13.19723219114904
ONEWEB-0529             
1 54145U 22138AJ  25063.89182458  .00000055  00000+0  10464-3 0  9993
2 54145  87.9192  38.2589 0002209  85.6981 274.4404 13.19726242114921
